{
  "type": "FeatureCollection",
  "features": [
    {
      "type": "Feature",
      "properties": {
        "norad_id": 31307,
        "name": "GALAXY 17 (G-17)",
        "group": "intelsat",
        "lat": 1.1647223441932737,
        "lon": -125.94467181856842,
        "alt_km": 35761.190329271754,
        "timestamp": "2025-12-11T15:53:39.209851+00:00",
        "meta_object_name": "GALAXY 17 (G-17)",
        "meta_object_id": "2007-016B",
        "meta_epoch": "2025-12-11T04:52:38.653824",
        "meta_mean_motion": 1.00272515,
        "meta_eccentricity": 0.00059347,
        "meta_inclination": 2.4965,
        "meta_ra_of_asc_node": 82.3008,
        "meta_arg_of_pericenter": 163.5412,
        "meta_mean_anomaly": 182.4997,
        "meta_ephemeris_type": 0,
        "meta_classification_type": "U",
        "meta_norad_cat_id": 31307,
        "meta_element_set_no": 999,
        "meta_rev_at_epoch": 6791,
        "meta_bstar": 0,
        "meta_mean_motion_dot": -2e-06,
        "meta_mean_motion_ddot": 0,
        "tle_line1": "1 31307U 07016B   25345.20322516 -.00000200  00000+0  00000+0 0  9999",
        "tle_line2": "2 31307   2.4965  82.3008 0005934 163.5412 182.4997  1.00272515 67912"
      },
      "geometry": {
        "type": "Point",
        "coordinates": [
          -125.94467181856842,
          1.1647223441932737
        ]
      }
    },
    {
      "type": "Feature",
      "properties": {
        "norad_id": 31862,
        "name": "DIRECTV 10",
        "group": "intelsat",
        "lat": -0.00043893293268699757,
        "lon": -143.75419303442456,
        "alt_km": 35784.59393536627,
        "timestamp": "2025-12-11T15:53:39.209864+00:00",
        "meta_object_name": "DIRECTV 10",
        "meta_object_id": "2007-032A",
        "meta_epoch": "2025-12-10T23:19:34.847904",
        "meta_mean_motion": 1.00271412,
        "meta_eccentricity": 3.801e-05,
        "meta_inclination": 0.0021,
        "meta_ra_of_asc_node": 247.4466,
        "meta_arg_of_pericenter": 326.2855,
        "meta_mean_anomaly": 113.3201,
        "meta_ephemeris_type": 0,
        "meta_classification_type": "U",
        "meta_norad_cat_id": 31862,
        "meta_element_set_no": 999,
        "meta_rev_at_epoch": 4370,
        "meta_bstar": 0,
        "meta_mean_motion_dot": -9.8e-07,
        "meta_mean_motion_ddot": 0,
        "tle_line1": "1 31862U 07032A   25344.97193111 -.00000098  00000+0  00000+0 0  9998",
        "tle_line2": "2 31862   0.0021 247.4466 0000380 326.2855 113.3201  1.00271412 43703"
      },
      "geometry": {
        "type": "Point",
        "coordinates": [
          -143.75419303442456,
          -0.00043893293268699757
        ]
      }
    },
    {
      "type": "Feature",
      "properties": {
        "norad_id": 32253,
        "name": "INTELSAT 11 (IS-11)",
        "group": "intelsat",
        "lat": 2.9126526750259454,
        "lon": -170.60775922431864,
        "alt_km": 36111.32927660432,
        "timestamp": "2025-12-11T15:53:39.209875+00:00",
        "meta_object_name": "INTELSAT 11 (IS-11)",
        "meta_object_id": "2007-044B",
        "meta_epoch": "2025-12-11T04:35:38.717376",
        "meta_mean_motion": 0.99048278,
        "meta_eccentricity": 0.00089795,
        "meta_inclination": 3.0765,
        "meta_ra_of_asc_node": 80.9929,
        "meta_arg_of_pericenter": 165.3171,
        "meta_mean_anomaly": 135.252,
        "meta_ephemeris_type": 0,
        "meta_classification_type": "U",
        "meta_norad_cat_id": 32253,
        "meta_element_set_no": 999,
        "meta_rev_at_epoch": 6658,
        "meta_bstar": 0,
        "meta_mean_motion_dot": 8e-07,
        "meta_mean_motion_ddot": 0,
        "tle_line1": "1 32253U 07044B   25345.19142034  .00000080  00000+0  00000+0 0  9999",
        "tle_line2": "2 32253   3.0765  80.9929 0008979 165.3171 135.2520  0.99048278 66582"
      },
      "geometry": {
        "type": "Point",
        "coordinates": [
          -170.60775922431864,
          2.9126526750259454
        ]
      }
    },
    {
      "type": "Feature",
      "properties": {
        "norad_id": 32388,
        "name": "HORIZONS-2",
        "group": "intelsat",
        "lat": 0.6275198587438315,
        "lon": -114.77430276628864,
        "alt_km": 35767.70990402146,
        "timestamp": "2025-12-11T15:53:39.209887+00:00",
        "meta_object_name": "HORIZONS-2",
        "meta_object_id": "2007-063B",
        "meta_epoch": "2025-12-11T04:35:58.487424",
        "meta_mean_motion": 1.00270171,
        "meta_eccentricity": 0.00049542,
        "meta_inclination": 2.1178,
        "meta_ra_of_asc_node": 82.9764,
        "meta_arg_of_pericenter": 188.6576,
        "meta_mean_anomaly": 163.7263,
        "meta_ephemeris_type": 0,
        "meta_classification_type": "U",
        "meta_norad_cat_id": 32388,
        "meta_element_set_no": 999,
        "meta_rev_at_epoch": 6592,
        "meta_bstar": 0,
        "meta_mean_motion_dot": -2.47e-06,
        "meta_mean_motion_ddot": 0,
        "tle_line1": "1 32388U 07063B   25345.19164916 -.00000247  00000+0  00000+0 0  9998",
        "tle_line2": "2 32388   2.1178  82.9764 0004954 188.6576 163.7263  1.00270171 65923"
      },
      "geometry": {
        "type": "Point",
        "coordinates": [
          -114.77430276628864,
          0.6275198587438315
        ]
      }
    },
    {
      "type": "Feature",
      "properties": {
        "norad_id": 32729,
        "name": "DIRECTV 11",
        "group": "intelsat",
        "lat": -0.00806448164240931,
        "lon": -140.17021272267752,
        "alt_km": 35785.03011932227,
        "timestamp": "2025-12-11T15:53:39.209899+00:00",
        "meta_object_name": "DIRECTV 11",
        "meta_object_id": "2008-013A",
        "meta_epoch": "2025-12-10T19:55:09.427872",
        "meta_mean_motion": 1.00269537,
        "meta_eccentricity": 4.84e-05,
        "meta_inclination": 0.0266,
        "meta_ra_of_asc_node": 165.676,
        "meta_arg_of_pericenter": 20.8459,
        "meta_mean_anomaly": 92.8714,
        "meta_ephemeris_type": 0,
        "meta_classification_type": "U",
        "meta_norad_cat_id": 32729,
        "meta_element_set_no": 999,
        "meta_rev_at_epoch": 4370,
        "meta_bstar": 0,
        "meta_mean_motion_dot": -1.2e-06,
        "meta_mean_motion_ddot": 0,
        "tle_line1": "1 32729U 08013A   25344.82997023 -.00000120  00000+0  00000+0 0  9995",
        "tle_line2": "2 32729   0.0266 165.6760 0000484  20.8459  92.8714  1.00269537 43702"
      },
      "geometry": {
        "type": "Point",
        "coordinates": [
          -140.17021272267752,
          -0.00806448164240931
        ]
      }
    },
    {
      "type": "Feature",
      "properties": {
        "norad_id": 32951,
        "name": "GALAXY 18 (G-18)",
        "group": "intelsat",
        "lat": -0.02724450661372037,
        "lon": -164.00216456556953,
        "alt_km": 35780.73314067576,
        "timestamp": "2025-12-11T15:53:39.209911+00:00",
        "meta_object_name": "GALAXY 18 (G-18)",
        "meta_object_id": "2008-024A",
        "meta_epoch": "2025-12-10T23:13:50.397888",
        "meta_mean_motion": 1.00273115,
        "meta_eccentricity": 0.00031095,
        "meta_inclination": 0.018,
        "meta_ra_of_asc_node": 314.8239,
        "meta_arg_of_pericenter": 309.1849,
        "meta_mean_anomaly": 41.3852,
        "meta_ephemeris_type": 0,
        "meta_classification_type": "U",
        "meta_norad_cat_id": 32951,
        "meta_element_set_no": 999,
        "meta_rev_at_epoch": 4396,
        "meta_bstar": 0,
        "meta_mean_motion_dot": 3e-07,
        "meta_mean_motion_ddot": 0,
        "tle_line1": "1 32951U 08024A   25344.96794442  .00000030  00000+0  00000+0 0  9998",
        "tle_line2": "2 32951   0.0180 314.8239 0003109 309.1849  41.3852  1.00273115 43963"
      },
      "geometry": {
        "type": "Point",
        "coordinates": [
          -164.00216456556953,
          -0.02724450661372037
        ]
      }
    },
    {
      "type": "Feature",
      "properties": {
        "norad_id": 33153,
        "name": "INTELSAT 25 (IS-25)",
        "group": "intelsat",
        "lat": -0.9514188695212046,
        "lon": -72.47348667060885,
        "alt_km": 35765.29191978619,
        "timestamp": "2025-12-11T15:53:39.209923+00:00",
        "meta_object_name": "INTELSAT 25 (IS-25)",
        "meta_object_id": "2008-034A",
        "meta_epoch": "2025-12-11T03:09:09.156672",
        "meta_mean_motion": 1.00270103,
        "meta_eccentricity": 0.00053344,
        "meta_inclination": 2.2239,
        "meta_ra_of_asc_node": 82.6668,
        "meta_arg_of_pericenter": 186.6267,
        "meta_mean_anomaly": 186.5862,
        "meta_ephemeris_type": 0,
        "meta_classification_type": "U",
        "meta_norad_cat_id": 33153,
        "meta_element_set_no": 999,
        "meta_rev_at_epoch": 6381,
        "meta_bstar": 0,
        "meta_mean_motion_dot": -2.18e-06,
        "meta_mean_motion_ddot": 0,
        "tle_line1": "1 33153U 08034A   25345.13135598 -.00000218  00000+0  00000+0 0  9994",
        "tle_line2": "2 33153   2.2239  82.6668 0005334 186.6267 186.5862  1.00270103 63810"
      },
      "geometry": {
        "type": "Point",
        "coordinates": [
          -72.47348667060885,
          -0.9514188695212046
        ]
      }
    }
  ]
}